[
    {
        "Altitude(m)": 702793.2131776329,
        "Argument of Periapsis(deg)": 0.009112096949301655,
        "Eccentricity": 0.0,
        "Inclination(deg)": 45.0,
        "Latitude(deg)": 16.408140681102513,
        "Longitude(deg)": 77.35624775535811,
        "Mean Anomaly(deg)": 156.49927331798463,
        "RAAN(deg)": 14.991398446833434,
        "Satellite Name": "Constellation 1 75",
        "Satellite Number": 75,
        "Semi-Major Axis(m)": 7083131.272910544,
        "Time(s)": 152
    },
    {
        "Altitude(m)": 702791.2713929889,
        "Argument of Periapsis(deg)": 0.009172044955547059,
        "Eccentricity": 0.0,
        "Inclination(deg)": 45.0,
        "Latitude(deg)": 16.366831497412285,
        "Longitude(deg)": 77.39869515889123,
        "Mean Anomaly(deg)": 156.55997445823456,
        "RAAN(deg)": 14.991341857667866,
        "Satellite Name": "Constellation 1 75",
        "Satellite Number": 75,
        "Semi-Major Axis(m)": 7083131.272910544,
        "Time(s)": 153
    },
    {
        "Altitude(m)": 702789.3461020393,
        "Argument of Periapsis(deg)": 0.009231992961792466,
        "Eccentricity": 0.0,
        "Inclination(deg)": 45.0,
        "Latitude(deg)": 16.32551189379824,
        "Longitude(deg)": 77.44112295392956,
        "Mean Anomaly(deg)": 156.62067559848444,
        "RAAN(deg)": 14.991285268502297,
        "Satellite Name": "Constellation 1 75",
        "Satellite Number": 75,
        "Semi-Major Axis(m)": 7083131.272910544,
        "Time(s)": 154
    },
    {
        "Altitude(m)": 702787.4373309754,
        "Argument of Periapsis(deg)": 0.009291940968037872,
        "Eccentricity": 0.0,
        "Inclination(deg)": 45.0,
        "Latitude(deg)": 16.284181902332563,
        "Longitude(deg)": 77.48353119594653,
        "Mean Anomaly(deg)": 156.68137673873437,
        "RAAN(deg)": 14.991228679336727,
        "Satellite Name": "Constellation 1 75",
        "Satellite Number": 75,
        "Semi-Major Axis(m)": 7083131.272910544,
        "Time(s)": 155
    },
    {
        "Altitude(m)": 702785.5451059344,
        "Argument of Periapsis(deg)": 0.009351888974283276,
        "Eccentricity": 0.0,
        "Inclination(deg)": 45.0,
        "Latitude(deg)": 16.24284155504899,
        "Longitude(deg)": 77.5259197722875,
        "Mean Anomaly(deg)": 156.74207787898422,
        "RAAN(deg)": 14.991172090171158,
        "Satellite Name": "Constellation 1 75",
        "Satellite Number": 75,
        "Semi-Major Axis(m)": 7083131.272910544,
        "Time(s)": 156
    },
    {
        "Altitude(m)": 702783.6694529711,
        "Argument of Periapsis(deg)": 0.00941183698052868,
        "Eccentricity": 0.0,
        "Inclination(deg)": 45.0,
        "Latitude(deg)": 16.20149088394333,
        "Longitude(deg)": 77.56828907455801,
        "Mean Anomaly(deg)": 156.80277901923415,
        "RAAN(deg)": 14.991115501005588,
        "Satellite Name": "Constellation 1 75",
        "Satellite Number": 75,
        "Semi-Major Axis(m)": 7083131.272910544,
        "Time(s)": 157
    },
    {
        "Altitude(m)": 702781.8103980828,
        "Argument of Periapsis(deg)": 0.009471784986774088,
        "Eccentricity": 0.0,
        "Inclination(deg)": 45.0,
        "Latitude(deg)": 16.160129920973013,
        "Longitude(deg)": 77.61063899004137,
        "Mean Anomaly(deg)": 156.86348015948403,
        "RAAN(deg)": 14.99105891184002,
        "Satellite Name": "Constellation 1 75",
        "Satellite Number": 75,
        "Semi-Major Axis(m)": 7083131.272910544,
        "Time(s)": 158
    },
    {
        "Altitude(m)": 702779.9679671983,
        "Argument of Periapsis(deg)": 0.009531732993019492,
        "Eccentricity": 0.0,
        "Inclination(deg)": 45.0,
        "Latitude(deg)": 16.118758698057402,
        "Longitude(deg)": 77.65296957408697,
        "Mean Anomaly(deg)": 156.92418129973396,
        "RAAN(deg)": 14.99100232267445,
        "Satellite Name": "Constellation 1 75",
        "Satellite Number": 75,
        "Semi-Major Axis(m)": 7083131.272910544,
        "Time(s)": 159
    },
    {
        "Altitude(m)": 702778.1421861736,
        "Argument of Periapsis(deg)": 0.009591680999264898,
        "Eccentricity": 0.0,
        "Inclination(deg)": 45.0,
        "Latitude(deg)": 16.077377247078186,
        "Longitude(deg)": 77.69528088201307,
        "Mean Anomaly(deg)": 156.98488243998383,
        "RAAN(deg)": 14.99094573350888,
        "Satellite Name": "Constellation 1 75",
        "Satellite Number": 75,
        "Semi-Major Axis(m)": 7083131.272910544,
        "Time(s)": 160
    },
    {
        "Altitude(m)": 702776.3330808029,
        "Argument of Periapsis(deg)": 0.009651629005510304,
        "Eccentricity": 0.0,
        "Inclination(deg)": 45.0,
        "Latitude(deg)": 16.035985599879126,
        "Longitude(deg)": 77.73757296910705,
        "Mean Anomaly(deg)": 157.04558358023377,
        "RAAN(deg)": 14.990889144343312,
        "Satellite Name": "Constellation 1 75",
        "Satellite Number": 75,
        "Semi-Major Axis(m)": 7083131.272910544,
        "Time(s)": 161
    },
    {
        "Altitude(m)": 702774.5406768096,
        "Argument of Periapsis(deg)": 0.00971157701175571,
        "Eccentricity": 0.0,
        "Inclination(deg)": 45.0,
        "Latitude(deg)": 15.994583788266372,
        "Longitude(deg)": 77.77984589062523,
        "Mean Anomaly(deg)": 157.10628472048361,
        "RAAN(deg)": 14.99083255517774,
        "Satellite Name": "Constellation 1 75",
        "Satellite Number": 75,
        "Semi-Major Axis(m)": 7083131.272910544,
        "Time(s)": 162
    },
    {
        "Altitude(m)": 702772.7649998596,
        "Argument of Periapsis(deg)": 0.009771525018001118,
        "Eccentricity": 0.0,
        "Inclination(deg)": 45.0,
        "Latitude(deg)": 15.953171844008335,
        "Longitude(deg)": 77.82209953369589,
        "Mean Anomaly(deg)": 157.16698586073352,
        "RAAN(deg)": 14.99077596601217,
        "Satellite Name": "Constellation 1 75",
        "Satellite Number": 75,
        "Semi-Major Axis(m)": 7083131.272910544,
        "Time(s)": 163
    },
    {
        "Altitude(m)": 702771.0060755312,
        "Argument of Periapsis(deg)": 0.00983147302424652,
        "Eccentricity": 0.0,
        "Inclination(deg)": 45.0,
        "Latitude(deg)": 15.911749798836476,
        "Longitude(deg)": 77.86433428970761,
        "Mean Anomaly(deg)": 157.22768700098342,
        "RAAN(deg)": 14.990719376846602,
        "Satellite Name": "Constellation 1 75",
        "Satellite Number": 75,
        "Semi-Major Axis(m)": 7083131.272910544,
        "Time(s)": 164
    },
    {
        "Altitude(m)": 702769.2639293567,
        "Argument of Periapsis(deg)": 0.009891421030491928,
        "Eccentricity": 0.0,
        "Inclination(deg)": 45.0,
        "Latitude(deg)": 15.870317684444384,
        "Longitude(deg)": 77.90655004572677,
        "Mean Anomaly(deg)": 157.28838814123336,
        "RAAN(deg)": 14.990662787681032,
        "Satellite Name": "Constellation 1 75",
        "Satellite Number": 75,
        "Semi-Major Axis(m)": 7083131.272910544,
        "Time(s)": 165
    },
    {
        "Altitude(m)": 702767.5385867825,
        "Argument of Periapsis(deg)": 0.009951369036737332,
        "Eccentricity": 0.0,
        "Inclination(deg)": 45.0,
        "Latitude(deg)": 15.82887553248862,
        "Longitude(deg)": 77.94874685688593,
        "Mean Anomaly(deg)": 157.34908928148323,
        "RAAN(deg)": 14.990606198515463,
        "Satellite Name": "Constellation 1 75",
        "Satellite Number": 75,
        "Semi-Major Axis(m)": 7083131.272910544,
        "Time(s)": 166
    },
    {
        "Altitude(m)": 702765.8300731975,
        "Argument of Periapsis(deg)": 0.010011317042982738,
        "Eccentricity": 0.0,
        "Inclination(deg)": 45.0,
        "Latitude(deg)": 15.787423374588716,
        "Longitude(deg)": 77.99092477828661,
        "Mean Anomaly(deg)": 157.40979042173313,
        "RAAN(deg)": 14.990549609349893,
        "Satellite Name": "Constellation 1 75",
        "Satellite Number": 75,
        "Semi-Major Axis(m)": 7083131.272910544,
        "Time(s)": 167
    },
    {
        "Altitude(m)": 702764.1384139156,
        "Argument of Periapsis(deg)": 0.010071265049228144,
        "Eccentricity": 0.0,
        "Inclination(deg)": 45.0,
        "Latitude(deg)": 15.745961242327155,
        "Longitude(deg)": 78.03308386499953,
        "Mean Anomaly(deg)": 157.470491561983,
        "RAAN(deg)": 14.990493020184324,
        "Satellite Name": "Constellation 1 75",
        "Satellite Number": 75,
        "Semi-Major Axis(m)": 7083131.272910544,
        "Time(s)": 168
    },
    {
        "Altitude(m)": 702762.4636341901,
        "Argument of Periapsis(deg)": 0.01013121305547355,
        "Eccentricity": 0.0,
        "Inclination(deg)": 45.0,
        "Latitude(deg)": 15.70448916724946,
        "Longitude(deg)": 78.07522417206447,
        "Mean Anomaly(deg)": 157.53119270223294,
        "RAAN(deg)": 14.990436431018756,
        "Satellite Name": "Constellation 1 75",
        "Satellite Number": 75,
        "Semi-Major Axis(m)": 7083131.272910544,
        "Time(s)": 169
    },
    {
        "Altitude(m)": 702760.8057591935,
        "Argument of Periapsis(deg)": 0.010191161061718957,
        "Eccentricity": 0.0,
        "Inclination(deg)": 45.0,
        "Latitude(deg)": 15.663007180864488,
        "Longitude(deg)": 78.1173457544904,
        "Mean Anomaly(deg)": 157.59189384248282,
        "RAAN(deg)": 14.990379841853185,
        "Satellite Name": "Constellation 1 75",
        "Satellite Number": 75,
        "Semi-Major Axis(m)": 7083131.272910544,
        "Time(s)": 170
    }
]